ONEWEB-0558             
1 56059U 23043P   25287.27848547  .00000130  00000+0  28480-3 0  9994
2 56059  87.9167 293.0533 0002073 102.9260 257.2105 13.21713861125757
ONEWEB-0559             
1 56060U 23043Q   25287.26724707  .00000045  00000+0  78482-4 0  9999
2 56060  87.9168 293.0484 0001827 101.2230 258.9109 13.21756846125763
ONEWEB-0566             
1 56061U 23043R   25287.26080529  .00000069  00000+0  13486-3 0  9995
2 56061  87.9167 293.0471 0001899 101.5463 258.5885 13.21785535125741
ONEWEB-0568             
1 56062U 23043S   25287.23677669  .00000019  00000+0  15343-4 0  9990
2 56062  87.8977 277.7678 0002067  80.9893 279.1472 13.16594432126619
ONEWEB-0574             
1 56063U 23043T   25287.25436820  .00000051  00000+0  91556-4 0  9991
2 56063  87.9168 293.0369 0001753  87.0769 273.0565 13.21805625125780
ONEWEB-0575             
1 56064U 23043U   25287.23043119  .00000003  00000+0 -25078-4 0  9999
2 56064  87.8975 277.7720 0001745  74.4645 285.6679 13.16594528126608
ONEWEB-0576             
1 56065U 23043V   25287.21143882  .00000163  00000+0  39253-3 0  9991
2 56065  87.8981 277.7734 0001938  82.1299 278.0052 13.16593541126599
ONEWEB-0577             
1 56066U 23043W   25287.21777211 -.00000784  00000+0 -20861-2 0  9996
2 56066  87.8979 277.7727 0001610  67.4648 292.6653 13.16588279126625
